NORAD_CAT_ID,OBJECT_NAME,OBJECT_TYPE,EPOCH,MEAN_MOTION,ECCENTRICITY,INCLINATION,RA_OF_ASC_NODE,ARG_OF_PERICENTER,MEAN_ANOMALY,BSTAR,MEAN_MOTION_DOT,MEAN_MOTION_DDOT,TLE_LINE0,TLE_LINE1,TLE_LINE2,SEMIMAJOR_AXIS,PERIOD,APOGEE,PERIGEE,DECAYED
53919.0,STARLINK-5023,PAYLOAD,2024-07-02 00:48:49,15.08842831,0.0001294,53.2144,197.773,84.5652,275.5488,7.1924e-05,8.57e-06,0.0,0 STARLINK-5023,1 53919U 22119AK  24184.03390488  .00000857  00000-0  71924-4 0  9993,2 53919  53.2144 197.7730 0001294  84.5652 275.5488 15.08842831 98464,6917.872,95.437,540.632,538.842,0.0
53919.0,STARLINK-5023,PAYLOAD,2024-07-02 07:10:21,15.08844354,0.000129,53.2143,196.5834,84.9868,275.1271,8.0633e-05,9.96e-06,0.0,0 STARLINK-5023,1 53919U 22119AK  24184.29886318  .00000996  00000-0  80633-4 0  9994,2 53919  53.2143 196.5834 0001290  84.9868 275.1271 15.08844354 98923,6917.867,95.437,540.624,538.84,0.0
53919.0,STARLINK-5023,PAYLOAD,2024-07-02 18:18:03,15.08844429,0.0001269,53.2144,194.5015,85.2735,274.8402,6.301e-05,7.15e-06,0.0,0 STARLINK-5023,1 53919U 22119AK  24184.76254199  .00000715  00000-0  63010-4 0  9991,2 53919  53.2144 194.5015 0001269  85.2735 274.8402 15.08844429 98998,6917.867,95.437,540.61,538.854,0.0
53919.0,STARLINK-5023,PAYLOAD,2024-07-03 03:50:22,15.08839401,0.0001288,53.2148,192.7175,85.9372,274.1767,4.6828e-05,4.57e-06,0.0,0 STARLINK-5023,1 53919U 22119AK  24185.15998514  .00000457  00000-0  46828-4 0  9992,2 53919  53.2148 192.7175 0001288  85.9372 274.1767 15.08839401 98636,6917.882,95.438,540.638,538.856,0.0
53919.0,STARLINK-5023,PAYLOAD,2024-07-03 10:11:55,15.08842904,0.0001297,53.2149,191.5273,90.0065,270.1075,4.5192e-05,4.31e-06,0.0,0 STARLINK-5023,1 53919U 22119AK  24185.42494236  .00000431  00000-0  45192-4 0  9999,2 53919  53.2149 191.5273 0001297  90.0065 270.1075 15.08842904 99090,6917.872,95.437,540.634,538.839,0.0
53919.0,STARLINK-5023,PAYLOAD,2024-07-04 05:16:32,15.08842006,0.0001305,53.2148,187.9585,91.3358,268.7784,9.846e-06,-1.31e-06,0.0,0 STARLINK-5023,1 53919U 22119AK  24186.21982226 -.00000131  00000-0  98460-5 0  9993,2 53919  53.2148 187.9585 0001305  91.3358 268.7784 15.08842006 98792,6917.874,95.437,540.642,538.836,0.0
53919.0,STARLINK-5023,PAYLOAD,2024-07-04 06:51:55,15.08842284,0.0001306,53.2148,187.6611,91.5738,268.5404,1.1038e-05,-1.12e-06,0.0,0 STARLINK-5023,1 53919U 22119AK  24186.28606182 -.00000112  00000-0  11038-4 0  9998,2 53919  53.2148 187.6611 0001306  91.5738 268.5404 15.08842284 99228,6917.873,95.437,540.642,538.835,0.0
53919.0,STARLINK-5023,PAYLOAD,2024-07-05 05:07:20,15.08835967,0.0001311,53.215,183.4981,91.842,268.2722,-9.3262e-07,-3.03e-06,0.0,0 STARLINK-5023,1 53919U 22119AK  24187.21342620 -.00000303  00000-0 -93262-6 0  9990,2 53919  53.2150 183.4981 0001311  91.8420 268.2722 15.08835967 98940,6917.893,95.438,540.665,538.851,0.0
53919.0,STARLINK-5023,PAYLOAD,2024-07-05 06:42:43,15.088368,0.0001299,53.215,183.201,90.9506,269.1635,6.7821e-06,-1.8e-06,0.0,0 STARLINK-5023,1 53919U 22119AK  24187.27966554 -.00000180  00000-0  67821-5 0  9997,2 53919  53.2150 183.2010 0001299  90.9506 269.1635 15.08836800 99379,6917.89,95.438,540.654,538.857,0.0
53919.0,STARLINK-5023,PAYLOAD,2024-07-05 16:15:02,15.088363,0.0001312,53.2151,181.417,90.6415,269.4727,8.9646e-07,-2.74e-06,0.0,0 STARLINK-5023,1 53919U 22119AK  24187.67710673 -.00000274  00000-0  89646-6 0  9994,2 53919  53.2151 181.4170 0001312  90.6415 269.4727 15.08836300 99436,6917.892,95.438,540.664,538.849,0.0
53919.0,STARLINK-5023,PAYLOAD,2024-07-06 06:33:30,15.08833023,0.0001408,53.2159,178.7425,94.4535,265.6618,2.8184e-07,-2.83e-06,0.0,0 STARLINK-5023,1 53919U 22119AK  24188.27327124 -.00000283  00000-0  28184-6 0  9996,2 53919  53.2159 178.7425 0001408  94.4535 265.6618 15.08833023 99107,6917.902,95.438,540.741,538.793,0.0
53919.0,STARLINK-5023,PAYLOAD,2024-07-06 16:05:49,15.08831519,0.0001401,53.2159,176.9583,93.5878,266.5274,-3.1967e-06,-3.39e-06,0.0,0 STARLINK-5023,1 53919U 22119AK  24188.67071368 -.00000339  00000-0 -31967-5 0  9991,2 53919  53.2159 176.9583 0001401  93.5878 266.5274 15.08831519 99583,6917.906,95.438,540.741,538.802,0.0
53919.0,STARLINK-5023,PAYLOAD,2024-07-07 07:59:41,15.08834021,0.0001418,53.2158,173.9845,93.9855,266.1299,3.9149e-05,3.35e-06,0.0,0 STARLINK-5023,1 53919U 22119AK  24189.33311390  .00000335  00000-0  39149-4 0  9990,2 53919  53.2158 173.9845 0001418  93.9855 266.1299 15.08834021 99266,6917.899,95.438,540.745,538.783,0.0
53919.0,STARLINK-5023,PAYLOAD,2024-07-08 07:50:27,15.08841794,0.0001383,53.2154,169.5232,88.2333,271.8818,0.00010725,1.419e-05,0.0,0 STARLINK-5023,1 53919U 22119AK  24190.32670874  .00001419  00000-0  10725-3 0  9998,2 53919  53.2154 169.5232 0001383  88.2333 271.8818 15.08841794 99414,6917.875,95.437,540.697,538.783,0.0
53919.0,STARLINK-5023,PAYLOAD,2024-07-08 15:47:23,15.08838498,0.0001393,53.2152,168.0361,83.5561,276.5589,7.157e-05,8.51e-06,0.0,0 STARLINK-5023,1 53919U 22119AK  24190.65791248  .00000851  00000-0  71570-4 0  9998,2 53919  53.2152 168.0361 0001393  83.5561 276.5589 15.08838498 99886,6917.885,95.438,540.714,538.786,0.0
53919.0,STARLINK-5023,PAYLOAD,2024-07-09 04:30:28,15.08839305,0.0001365,53.2149,165.6566,85.5884,274.5264,3.9434e-05,3.4e-06,0.0,0 STARLINK-5023,1 53919U 22119AK  24191.18783364  .00000340  00000-0  39434-4 0  9993,2 53919  53.2149 165.6566 0001365  85.5884 274.5264 15.08839305 99540,6917.883,95.438,540.692,538.803,0.0
53919.0,STARLINK-5023,PAYLOAD,2024-07-09 06:05:51,15.08840584,0.0001402,53.2152,165.3597,84.837,275.2782,5.059e-05,5.17e-06,0.0,0 STARLINK-5023,1 53919U 22119AK  24191.25407263  .00000517  00000-0  50590-4 0  9994,2 53919  53.2152 165.3597 0001402  84.8370 275.2782 15.08840584 99970,6917.879,95.438,540.713,538.774,0.0
53919.0,STARLINK-5023,PAYLOAD,2024-07-10 04:21:15,15.08843603,0.0001404,53.2153,161.1948,96.4199,263.6953,-9.4119e-06,-4.38e-06,0.0,0 STARLINK-5023,1 53919U 22119AK  24192.18143182 -.00000438  00000-0 -94119-5 0  9994,2 53919  53.2153 161.1948 0001404  96.4199 263.6953 15.08843603100110,6917.869,95.437,540.706,538.763,0.0
53919.0,STARLINK-5023,PAYLOAD,2024-07-11 04:12:02,15.08839301,0.0001483,53.2155,156.7353,95.1184,264.9978,4.6433e-05,4.51e-06,0.0,0 STARLINK-5023,1 53919U 22119AK  24193.17503296  .00000451  00000-0  46433-4 0  9998,2 53919  53.2155 156.7353 0001483  95.1184 264.9978 15.08839301 99847,6917.883,95.438,540.773,538.722,0.0
53919.0,STARLINK-5023,PAYLOAD,2024-07-11 07:22:48,15.08840547,0.0001461,53.2156,156.1391,97.6514,262.4644,5.842e-05,6.42e-06,0.0,0 STARLINK-5023,1 53919U 22119AK  24193.30751146  .00000642  00000-0  58420-4 0  9993,2 53919  53.2156 156.1391 0001461  97.6514 262.4644 15.08840547100282,6917.879,95.438,540.754,538.733,0.0
53919.0,STARLINK-5023,PAYLOAD,2024-07-12 07:13:35,15.08842736,0.0001428,53.2154,151.6796,94.6958,265.4197,6.7201e-05,7.82e-06,0.0,0 STARLINK-5023,1 53919U 22119AK  24194.30110999  .00000782  00000-0  67201-4 0  9991,2 53919  53.2154 151.6796 0001428  94.6958 265.4197 15.08842736100010,6917.872,95.437,540.725,538.749,0.0
53919.0,STARLINK-5023,PAYLOAD,2024-07-13 13:25:55,15.08841619,0.0001276,53.2162,146.0294,84.7601,275.3537,2.6118e-05,1.28e-06,0.0,0 STARLINK-5023,1 53919U 22119AK  24195.55967225  .00000128  00000-0  26118-4 0  9997,2 53919  53.2162 146.0294 0001276  84.7601 275.3537 15.08841619100620,6917.875,95.437,540.623,538.858,0.0
53919.0,STARLINK-5023,PAYLOAD,2024-07-13 21:22:52,15.08834015,0.0001351,53.2172,144.5455,95.5054,264.6092,-6.0388e-05,-1.249e-05,0.0,0 STARLINK-5023,1 53919U 22119AK  24195.89088180 -.00001249  00000-0 -60388-4 0  9992,2 53919  53.2172 144.5455 0001351  95.5054 264.6092 15.08834015100257,6917.899,95.438,540.698,538.829,0.0
53919.0,STARLINK-5023,PAYLOAD,2024-07-14 03:44:23,15.08843632,0.0001315,53.2173,143.3571,92.4745,267.6398,3.3799e-05,2.5e-06,0.0,0 STARLINK-5023,1 53919U 22119AK  24196.15583256  .00000250  00000-0  33799-4 0  9991,2 53919  53.2173 143.3571 0001315  92.4745 267.6398 15.08843632100298,6917.869,95.437,540.644,538.825,0.0
53919.0,STARLINK-5023,PAYLOAD,2024-07-14 13:16:42,15.08841208,0.0001211,53.2155,141.5675,85.9667,274.1463,3.5018e-05,2.7e-06,0.0,0 STARLINK-5023,1 53919U 22119AK  24196.55327327  .00000270  00000-0  35018-4 0  9998,2 53919  53.2155 141.5675 0001211  85.9667 274.1463 15.08841208100774,6917.877,95.437,540.579,538.904,0.0
53919.0,STARLINK-5023,PAYLOAD,2024-07-15 13:07:30,15.08833947,0.0001663,53.218,137.1119,90.7553,269.3629,-1.3056e-05,-4.96e-06,0.0,0 STARLINK-5023,1 53919U 22119AK  24197.54688235 -.00000496  00000-0 -13056-4 0  9996,2 53919  53.2180 137.1119 0001663  90.7553 269.3629 15.08833947100507,6917.899,95.438,540.914,538.613,0.0
53919.0,STARLINK-5023,PAYLOAD,2024-07-16 05:01:21,15.08846574,0.0001213,53.2167,134.1354,91.0513,269.0619,7.5396e-05,9.12e-06,0.0,0 STARLINK-5023,1 53919U 22119AK  24198.20927247  .00000912  00000-0  75396-4 0  9995,2 53919  53.2167 134.1354 0001213  91.0513 269.0619 15.08846574100608,6917.86,95.437,540.564,538.886,0.0
53919.0,STARLINK-5023,PAYLOAD,2024-07-17 12:49:04,15.0883821,0.00012,53.2166,128.1844,98.8873,261.2255,-5.4011e-05,-1.147e-05,0.0,0 STARLINK-5023,1 53919U 22119AK  24199.53408252 -.00001147  00000-0 -54011-4 0  9996,2 53919  53.2166 128.1844 0001200  98.8873 261.2255 15.08838210101221,6917.886,95.438,540.581,538.921,0.0
53919.0,STARLINK-5023,PAYLOAD,2024-07-18 12:39:51,15.08841681,0.0001693,53.2162,123.7279,84.3595,275.759,-1.6178e-06,-3.14e-06,0.0,0 STARLINK-5023,1 53919U 22119AK  24200.52768485 -.00000314  00000-0 -16178-5 0  9993,2 53919  53.2162 123.7279 0001693  84.3595 275.7590 15.08841681101371,6917.875,95.437,540.911,538.569,0.0
53919.0,STARLINK-5023,PAYLOAD,2024-07-18 22:12:10,15.08837178,0.0001413,53.2161,121.9409,96.992,263.1233,3.368e-05,2.48e-06,0.0,0 STARLINK-5023,1 53919U 22119AK  24200.92512668  .00000248  00000-0  33680-4 0  9997,2 53919  53.2161 121.9409 0001413  96.9920 263.1233 15.08837178101434,6917.889,95.438,540.732,538.777,0.0
